{
  "type": "FeatureCollection",
  "features": [
    {
      "type": "Feature",
      "properties": {
        "norad_id": 66484,
        "name": "STARLINK-35371",
        "group": "last-30-days",
        "lat": -1.4016380473774446,
        "lon": -125.35935272638922,
        "alt_km": 415.35701269852325,
        "timestamp": "2025-12-15T19:00:44.075743+00:00",
        "meta_object_name": "STARLINK-35371",
        "meta_object_id": "2025-262AE",
        "meta_epoch": "2025-12-12T16:01:32.219328",
        "meta_mean_motion": 15.50574998,
        "meta_eccentricity": 0.00014167,
        "meta_inclination": 43.0018,
        "meta_ra_of_asc_node": 71.4158,
        "meta_arg_of_pericenter": 278.2184,
        "meta_mean_anomaly": 81.8515,
        "meta_ephemeris_type": 0,
        "meta_classification_type": "U",
        "meta_norad_cat_id": 66484,
        "meta_element_set_no": 999,
        "meta_rev_at_epoch": 555,
        "meta_bstar": 7.4960958e-05,
        "meta_mean_motion_dot": 4.058e-05,
        "meta_mean_motion_ddot": 0,
        "tle_line1": "1 66484U 25262AE  25346.66773402  .00004058  00000+0  74961-4 0  9997",
        "tle_line2": "2 66484  43.0018  71.4158 0001416 278.2184  81.8515 15.50574998  5552"
      },
      "geometry": {
        "type": "Point",
        "coordinates": [
          -125.35935272638922,
          -1.4016380473774446
        ]
      }
    },
    {
      "type": "Feature",
      "properties": {
        "norad_id": 66485,
        "name": "STARLINK-34774",
        "group": "last-30-days",
        "lat": -22.99656625507121,
        "lon": -45.086596306351986,
        "alt_km": 445.6617970831603,
        "timestamp": "2025-12-15T19:00:44.075753+00:00",
        "meta_object_name": "STARLINK-34774",
        "meta_object_id": "2025-263A",
        "meta_epoch": "2025-12-14T01:38:02.194080",
        "meta_mean_motion": 15.40689642,
        "meta_eccentricity": 0.00014296,
        "meta_inclination": 43.0009,
        "meta_ra_of_asc_node": 117.7603,
        "meta_arg_of_pericenter": 303.4001,
        "meta_mean_anomaly": 56.6718,
        "meta_ephemeris_type": 0,
        "meta_classification_type": "U",
        "meta_norad_cat_id": 66485,
        "meta_element_set_no": 999,
        "meta_rev_at_epoch": 576,
        "meta_bstar": 0.0017871736,
        "meta_mean_motion_dot": 0.00075063,
        "meta_mean_motion_ddot": 0,
        "tle_line1": "1 66485U 25263A   25348.06808095  .00075063  00000+0  17872-2 0  9992",
        "tle_line2": "2 66485  43.0009 117.7603 0001429 303.4001  56.6718 15.40689642  5765"
      },
      "geometry": {
        "type": "Point",
        "coordinates": [
          -45.086596306351986,
          -22.99656625507121
        ]
      }
    },
    {
      "type": "Feature",
      "properties": {
        "norad_id": 66486,
        "name": "STARLINK-34844",
        "group": "last-30-days",
        "lat": 37.658739647004495,
        "lon": 163.22157820704894,
        "alt_km": 409.9874950904068,
        "timestamp": "2025-12-15T19:00:44.075764+00:00",
        "meta_object_name": "STARLINK-34844",
        "meta_object_id": "2025-263B",
        "meta_epoch": "2025-12-13T18:48:59.664960",
        "meta_mean_motion": 15.50521682,
        "meta_eccentricity": 0.00040201,
        "meta_inclination": 43.0013,
        "meta_ra_of_asc_node": 119.0631,
        "meta_arg_of_pericenter": 285.7981,
        "meta_mean_anomaly": 74.2436,
        "meta_ephemeris_type": 0,
        "meta_classification_type": "U",
        "meta_norad_cat_id": 66486,
        "meta_element_set_no": 999,
        "meta_rev_at_epoch": 567,
        "meta_bstar": 0.0010716993,
        "meta_mean_motion_dot": 0.00062922,
        "meta_mean_motion_ddot": 0,
        "tle_line1": "1 66486U 25263B   25347.78402390  .00062922  00000+0  10717-2 0  9990",
        "tle_line2": "2 66486  43.0013 119.0631 0004020 285.7981  74.2436 15.50521682  5679"
      },
      "geometry": {
        "type": "Point",
        "coordinates": [
          163.22157820704894,
          37.658739647004495
        ]
      }
    },
    {
      "type": "Feature",
      "properties": {
        "norad_id": 66487,
        "name": "STARLINK-34733",
        "group": "last-30-days",
        "lat": -35.617956945514635,
        "lon": 57.367181528078504,
        "alt_km": 445.72395088524536,
        "timestamp": "2025-12-15T19:00:44.075775+00:00",
        "meta_object_name": "STARLINK-34733",
        "meta_object_id": "2025-263C",
        "meta_epoch": "2025-12-14T20:00:06.000192",
        "meta_mean_motion": 15.40655059,
        "meta_eccentricity": 0.00016311,
        "meta_inclination": 42.9999,
        "meta_ra_of_asc_node": 113.1398,
        "meta_arg_of_pericenter": 272.3201,
        "meta_mean_anomaly": 104.7436,
        "meta_ephemeris_type": 0,
        "meta_classification_type": "U",
        "meta_norad_cat_id": 66487,
        "meta_element_set_no": 999,
        "meta_rev_at_epoch": 597,
        "meta_bstar": 0.0019906325,
        "meta_mean_motion_dot": 0.00083642,
        "meta_mean_motion_ddot": 0,
        "tle_line1": "1 66487U 25263C   25348.83340278  .00083642  00000+0  19906-2 0  9995",
        "tle_line2": "2 66487  42.9999 113.1398 0001631 272.3201 104.7436 15.40655059  5975"
      },
      "geometry": {
        "type": "Point",
        "coordinates": [
          57.367181528078504,
          -35.617956945514635
        ]
      }
    },
    {
      "type": "Feature",
      "properties": {
        "norad_id": 66488,
        "name": "STARLINK-35515",
        "group": "last-30-days",
        "lat": 39.22470323997375,
        "lon": 168.46754202729105,
        "alt_km": 409.2685140233061,
        "timestamp": "2025-12-15T19:00:44.075785+00:00",
        "meta_object_name": "STARLINK-35515",
        "meta_object_id": "2025-263D",
        "meta_epoch": "2025-12-14T10:15:34.696224",
        "meta_mean_motion": 15.50652165,
        "meta_eccentricity": 0.00032268,
        "meta_inclination": 42.9995,
        "meta_ra_of_asc_node": 115.2892,
        "meta_arg_of_pericenter": 283.9292,
        "meta_mean_anomaly": 76.1209,
        "meta_ephemeris_type": 0,
        "meta_classification_type": "U",
        "meta_norad_cat_id": 66488,
        "meta_element_set_no": 999,
        "meta_rev_at_epoch": 582,
        "meta_bstar": 0.0017633828,
        "meta_mean_motion_dot": 0.00104787,
        "meta_mean_motion_ddot": 0,
        "tle_line1": "1 66488U 25263D   25348.42748491  .00104787  00000+0  17634-2 0  9990",
        "tle_line2": "2 66488  42.9995 115.2892 0003226 283.9292  76.1209 15.50652165  5824"
      },
      "geometry": {
        "type": "Point",
        "coordinates": [
          168.46754202729105,
          39.22470323997375
        ]
      }
    },
    {
      "type": "Feature",
      "properties": {
        "norad_id": 66489,
        "name": "STARLINK-35696",
        "group": "last-30-days",
        "lat": 39.569971776210565,
        "lon": 169.77924627488667,
        "alt_km": 409.87097958406775,
        "timestamp": "2025-12-15T19:00:44.075797+00:00",
        "meta_object_name": "STARLINK-35696",
        "meta_object_id": "2025-263E",
        "meta_epoch": "2025-12-14T17:58:51.161664",
        "meta_mean_motion": 15.50551261,
        "meta_eccentricity": 0.00022268,
        "meta_inclination": 42.9995,
        "meta_ra_of_asc_node": 113.4024,
        "meta_arg_of_pericenter": 255.5949,
        "meta_mean_anomaly": 104.4664,
        "meta_ephemeris_type": 0,
        "meta_classification_type": "U",
        "meta_norad_cat_id": 66489,
        "meta_element_set_no": 999,
        "meta_rev_at_epoch": 587,
        "meta_bstar": 0.0011085346,
        "meta_mean_motion_dot": 0.00065172,
        "meta_mean_motion_ddot": 0,
        "tle_line1": "1 66489U 25263E   25348.74920326  .00065172  00000+0  11085-2 0  9993",
        "tle_line2": "2 66489  42.9995 113.4024 0002226 255.5949 104.4664 15.50551261  5875"
      },
      "geometry": {
        "type": "Point",
        "coordinates": [
          169.77924627488667,
          39.569971776210565
        ]
      }
    },
    {
      "type": "Feature",
      "properties": {
        "norad_id": 66490,
        "name": "STARLINK-35693",
        "group": "last-30-days",
        "lat": -42.69352833956956,
        "lon": 9.608424044370377,
        "alt_km": 445.9095383418053,
        "timestamp": "2025-12-15T19:00:44.075807+00:00",
        "meta_object_name": "STARLINK-35693",
        "meta_object_id": "2025-263F",
        "meta_epoch": "2025-12-14T20:00:06.000192",
        "meta_mean_motion": 15.40667843,
        "meta_eccentricity": 0.00018168,
        "meta_inclination": 42.9998,
        "meta_ra_of_asc_node": 113.2293,
        "meta_arg_of_pericenter": 282.1831,
        "meta_mean_anomaly": 57.5319,
        "meta_ephemeris_type": 0,
        "meta_classification_type": "U",
        "meta_norad_cat_id": 66490,
        "meta_element_set_no": 999,
        "meta_rev_at_epoch": 597,
        "meta_bstar": 0.001993889,
        "meta_mean_motion_dot": 0.00083817,
        "meta_mean_motion_ddot": 0,
        "tle_line1": "1 66490U 25263F   25348.83340278  .00083817  00000+0  19939-2 0  9999",
        "tle_line2": "2 66490  42.9998 113.2293 0001816 282.1831  57.5319 15.40667843  5975"
      },
      "geometry": {
        "type": "Point",
        "coordinates": [
          9.608424044370377,
          -42.69352833956956
        ]
      }
    }
  ]
}